$$SOE
2459580.500000000, A.D. 2022-Jan-01 00:00:00.0000, -2.157457990094781E+08, 2.629523689011855E+08, 4.180806016192956E+07,
2459587.500000000, A.D. 2022-Jan-08 00:00:00.0000, -2.245996588507512E+08, 2.547391952123940E+08, 4.183919338946231E+07,
2459594.500000000, A.D. 2022-Jan-15 00:00:00.0000, -2.331814459811615E+08, 2.462174030274823E+08, 4.181963683118130E+07,
2459601.500000000, A.D. 2022-Jan-22 00:00:00.0000, -2.414795171975238E+08, 2.373960037908222E+08, 4.174919095404246E+07,
2459608.500000000, A.D. 2022-Jan-29 00:00:00.0000, -2.494825082879013E+08, 2.282844921100602E+08, 4.162772292871395E+07,
2459615.500000000, A.D. 2022-Feb-05 00:00:00.0000, -2.571793594047343E+08, 2.188928375900418E+08, 4.145516810496214E+07,
2459622.500000000, A.D. 2022-Feb-12 00:00:00.0000, -2.645593382032783E+08, 2.092314743025154E+08, 4.123153107978106E+07,
2459629.500000000, A.D. 2022-Feb-19 00:00:00.0000, -2.716120619902913E+08, 1.993112902227688E+08, 4.095688666224536E+07,
2459636.500000000, A.D. 2022-Feb-26 00:00:00.0000, -2.783275201213444E+08, 1.891436158949959E+08, 4.063138078869741E+07,
2459643.500000000, A.D. 2022-Mar-05 00:00:00.0000, -2.846960964058084E+08, 1.787402117065021E+08, 4.025523131654114E+07,
2459650.500000000, A.D. 2022-Mar-12 00:00:00.0000, -2.907085912095467E+08, 1.681132537081255E+08, 3.982872866436242E+07,
2459657.500000000, A.D. 2022-Mar-19 00:00:00.0000, -2.963562430920912E+08, 1.572753180184516E+08, 3.935223628773178E+07,
2459664.500000000, A.D. 2022-Mar-26 00:00:00.0000, -3.016307498607663E+08, 1.462393638218858E+08, 3.882619098182904E+07,
2459671.500000000, A.D. 2022-Apr-02 00:00:00.0000, -3.065242888770017E+08, 1.350187149273321E+08, 3.825110299388087E+07,
2459678.500000000, A.D. 2022-Apr-09 00:00:00.0000, -3.110295362450110E+08, 1.236270399216456E+08, 3.762755591483716E+07,
2459685.500000000, A.D. 2022-Apr-16 00:00:00.0000, -3.151396844281085E+08, 1.120783316079036E+08, 3.695620636537292E+07,
2459692.500000000, A.D. 2022-Apr-23 00:00:00.0000, -3.188484594666393E+08, 1.003868868551548E+08, 3.623778367637967E+07,
2459699.500000000, A.D. 2022-Apr-30 00:00:00.0000, -3.221501395800455E+08, 8.856728466569328E+07, 3.547308954864532E+07,
2459706.500000000, A.D. 2022-May-07 00:00:00.0000, -3.250395720050494E+08, 7.663436055024150E+07, 3.466299724751992E+07,
2459713.500000000, A.D. 2022-May-14 00:00:00.0000, -3.275121865884890E+08, 6.460318031820186E+07, 3.380845045140683E+07,
2459720.500000000, A.D. 2022-May-21 00:00:00.0000, -3.295640080816342E+08, 5.248901411064697E+07, 3.291046200123946E+07,
2459727.500000000, A.D. 2022-May-28 00:00:00.0000, -3.311916675459989E+08, 4.030730979690412E+07, 3.197011251766133E+07,
2459734.500000000, A.D. 2022-Jun-04 00:00:00.0000, -3.323924125289224E+08, 2.807366551299351E+07, 3.098854883743386E+07,
2459741.500000000, A.D. 2022-Jun-11 00:00:00.0000, -3.331641158022699E+08, 1.580380144027087E+07, 2.996698225920709E+07,
2459748.500000000, A.D. 2022-Jun-18 00:00:00.0000, -3.335052825705159E+08, 3.513530937704639E+06, 2.890668660040365E+07,
2459755.500000000, A.D. 2022-Jun-25 00:00:00.0000, -3.334150560722817E+08, -8.781268900676355E+06, 2.780899606518226E+07,
2459762.500000000, A.D. 2022-Jul-02 00:00:00.0000, -3.328932214034818E+08, -2.106468721990961E+07, 2.667530291233519E+07,
2459769.500000000, A.D. 2022-Jul-09 00:00:00.0000, -3.319402071425108E+08, -3.332080962030402E+07, 2.550705490937544E+07,
2459776.500000000, A.D. 2022-Jul-16 00:00:00.0000, -3.305570848114740E+08, -4.553374741803686E+07, 2.430575267489506E+07,
2459783.500000000, A.D. 2022-Jul-23 00:00:00.0000, -3.287455683600316E+08, -5.768766575738861E+07, 2.307294712658940E+07,
2459790.500000000, A.D. 2022-Jul-30 00:00:00.0000, -3.265080135898185E+08, -6.976681381410854E+07, 2.181023676369594E+07,
2459797.500000000, A.D. 2022-Aug-06 00:00:00.0000, -3.238474139343852E+08, -8.175555632424435E+07, 2.051926451850591E+07,
2459804.500000000, A.D. 2022-Aug-13 00:00:00.0000, -3.207673934336864E+08, -9.363840356413606E+07, 1.920171448977816E+07,
2459811.500000000, A.D. 2022-Aug-20 00:00:00.0000, -3.172721984932076E+08, -1.054000401709339E+08, 1.785930867307007E+07,
2459818.500000000, A.D. 2022-Aug-27 00:00:00.0000, -3.133666883948590E+08, -1.170253534233597E+08, 1.649380363514607E+07,
2459825.500000000, A.D. 2022-Sep-03 00:00:00.0000, -3.090563243604867E+08, -1.284994609884174E+08, 1.510698711436090E+07,
2459832.500000000, A.D. 2022-Sep-10 00:00:00.0000, -3.043471571337149E+08, -1.398077380072143E+08, 1.370067455476267E+07,
2459839.500000000, A.D. 2022-Sep-17 00:00:00.0000, -2.992458131122009E+08, -1.509358434240314E+08, 1.227670558509635E+07,
2459846.500000000, A.D. 2022-Sep-24 00:00:00.0000, -2.937594790383931E+08, -1.618697455188898E+08, 1.083694044694290E+07,
2459853.500000000, A.D. 2022-Oct-01 00:00:00.0000, -2.878958850848321E+08, -1.725957465824496E+08, 9.383256361980841E+06,
2459860.500000000, A.D. 2022-Oct-08 00:00:00.0000, -2.816632860096330E+08, -1.831005061345201E+08, 7.917543857312568E+06,
2459867.500000000, A.D. 2022-Oct-15 00:00:00.0000, -2.750704414021758E+08, -1.933710614164643E+08, 6.441703245621487E+06,
2459874.500000000, A.D. 2022-Oct-22 00:00:00.0000, -2.681265972928057E+08, -2.033948467774003E+08, 4.957641335459679E+06,
2459881.500000000, A.D. 2022-Oct-29 00:00:00.0000, -2.608414667255553E+08, -2.131597144908894E+08, 3.467267943083212E+06,
2459888.500000000, A.D. 2022-Nov-05 00:00:00.0000, -2.532252072917952E+08, -2.226539542090739E+08, 1.972492249784321E+06,
2459895.500000000, A.D. 2022-Nov-12 00:00:00.0000, -2.452883976814213E+08, -2.318663097424993E+08, 4.752193008075207E+05,
2459902.500000000, A.D. 2022-Nov-19 00:00:00.0000, -2.370420140612167E+08, -2.407859940903231E+08, -1.022653354662538E+06,
2459909.500000000, A.D. 2022-Nov-26 00:00:00.0000, -2.284974061154252E+08, -2.494027031059969E+08, -2.519238928747803E+06,
2459916.500000000, A.D. 2022-Dec-03 00:00:00.0000, -2.196662726897382E+08, -2.577066278082948E+08, -4.012664572368935E+06,
2459923.500000000, A.D. 2022-Dec-10 00:00:00.0000, -2.105606371040582E+08, -2.656884653197784E+08, -5.501074459012583E+06,
2459930.500000000, A.D. 2022-Dec-17 00:00:00.0000, -2.011928222153141E+08, -2.733394284597183E+08, -6.982632770938993E+06,
2459937.500000000, A.D. 2022-Dec-24 00:00:00.0000, -1.915754252193615E+08, -2.806512540645105E+08, -8.455526595804915E+06,
2459944.500000000, A.D. 2022-Dec-31 00:00:00.0000, -1.817212919269999E+08, -2.876162099431278E+08, -9.917968751128837E+06,
2459951.500000000, A.D. 2023-Jan-07 00:00:00.0000, -1.716434904800428E+08, -2.942270995278279E+08, -1.136820046346302E+07,
2459958.500000000, A.D. 2023-Jan-14 00:00:00.0000, -1.613552865586354E+08, -3.004772637517760E+08, -1.280449367635497E+07,
2459965.500000000, A.D. 2023-Jan-21 00:00:00.0000, -1.508701208037391E+08, -3.063605833615358E+08, -1.422515318339001E+07,
2459972.500000000, A.D. 2023-Jan-28 00:00:00.0000, -1.402015848633230E+08, -3.118714819040607E+08, -1.562851893595561E+07,
2459979.500000000, A.D. 2023-Feb-04 00:00:00.0000, -1.293633963448072E+08, -3.170049264092808E+08, -1.701296825705373E+07,
2459986.500000000, A.D. 2023-Feb-11 00:00:00.0000, -1.183693745375255E+08, -3.217564260120502E+08, -1.837691781076322E+07,
2459993.500000000, A.D. 2023-Feb-18 00:00:00.0000, -1.072334170308287E+08, -3.261220293885562E+08, -1.971882538793768E+07,
2460000.500000000, A.D. 2023-Feb-25 00:00:00.0000, -9.596947702081843E+07, -3.300983212229324E+08, -2.103719154529101E+07,
2460007.500000000, A.D. 2023-Mar-04 00:00:00.0000, -8.459154125239435E+07, -3.336824177424380E+08, -2.233056110640784E+07,
2460014.500000000, A.D. 2023-Mar-11 00:00:00.0000, -7.311360861152910E+07, -3.368719613821939E+08, -2.359752452880217E+07,
2460021.500000000, A.D. 2023-Mar-18 00:00:00.0000, -6.154966936043620E+07, -3.396651146929232E+08, -2.483671914746332E+07,
2460028.500000000, A.D. 2023-Mar-25 00:00:00.0000, -4.991368484751109E+07, -3.420605536027658E+08, -2.604683031982289E+07,
2460035.500000000, A.D. 2023-Apr-01 00:00:00.0000, -3.821956729711341E+07, -3.440574597029335E+08, -2.722659248176551E+07,
2460042.500000000, A.D. 2023-Apr-08 00:00:00.0000, -2.648116031870911E+07, -3.456555103944436E+08, -2.837478996135373E+07,
2460049.500000000, A.D. 2023-Apr-15 00:00:00.0000, -1.471222249080122E+07, -3.468548680621253E+08, -2.949025742984922E+07,
2460056.500000000, A.D. 2023-Apr-22 00:00:00.0000, -2.926412222560296E+06, -3.476561713875657E+08, -3.057188040951981E+07,
2460063.500000000, A.D. 2023-Apr-29 00:00:00.0000, 8.862728834052263E+06, -3.480605266104245E+08, -3.161859590981752E+07,
2460070.500000000, A.D. 2023-May-06 00:00:00.0000, 2.064179205635514E+07, -3.480694970184272E+08, -3.262939288998041E+07,
2460077.500000000, A.D. 2023-May-13 00:00:00.0000, 3.239751682915827E+07, -3.476850916176904E+08, -3.360331253665452E+07,
2460084.500000000, A.D. 2023-May-20 00:00:00.0000, 4.411680446588142E+07, -3.469097535300767E+08, -3.453944842352287E+07,
2460091.500000000, A.D. 2023-May-27 00:00:00.0000, 5.578673127192368E+07, -3.457463482000337E+08, -3.543694657860613E+07,
2460098.500000000, A.D. 2023-Jun-03 00:00:00.0000, 6.739456081719136E+07, -3.441981514347090E+08, -3.629500546800445E+07,
2460105.500000000, A.D. 2023-Jun-10 00:00:00.0000, 7.892775545513932E+07, -3.422688373385838E+08, -3.711287590525521E+07,
2460112.500000000, A.D. 2023-Jun-17 00:00:00.0000, 9.037398719437301E+07, -3.399624662500379E+08, -3.788986090560968E+07,
2460119.500000000, A.D. 2023-Jun-24 00:00:00.0000, 1.017211482608897E+08, -3.372834726711888E+08, -3.862531551632005E+07,
2460126.500000000, A.D. 2023-Jul-01 00:00:00.0000, 1.129573616222384E+08, -3.342366524070954E+08, -3.931864658439541E+07,
2460133.500000000, A.D. 2023-Jul-08 00:00:00.0000, 1.240709898179600E+08, -3.308271481315088E+08, -3.996931224634711E+07,
2460140.500000000, A.D. 2023-Jul-15 00:00:00.0000, 1.350506408388416E+08, -3.270604362417230E+08, -4.057682125843811E+07,
$$EOE